SHIYAN-13 (SY-13)       
1 51102U 22004A   22044.43397593  .00005888  00000+0  27923-3 0  9996
2 51102  98.6734 108.5061 0652159  66.5594 300.2780 14.19626573  3885
CZ-2D R/B               
1 51103U 22004B   22043.86190340  .00005377  00000+0  25203-3 0  9996
2 51103  98.6725 107.9573 0651629  67.9080 298.9955 14.20061870  3762
STARLINK-3366           
1 51104U 22005A   22044.50001157  .00013866  00000+0  10325-3 0  9998
2 51104  53.2173 148.5125 0002306  26.2006   2.6800 15.73153520  5325
STARLINK-3350           
1 51105U 22005B   22044.50001157  .00013645  00000+0  10143-3 0  9992
2 51105  53.2165 148.5249 0002524  31.1542 350.7710 15.73212483  5327
STARLINK-3176           
1 51106U 22005C   22044.58334491  .00045067  00000+0  32399-3 0  9991
2 51106  53.2163 148.1075 0002525  21.6555 116.2394 15.73184133  5332
STARLINK-3368           
1 51107U 22005D   22043.91667824  .00019380  00000+0  14262-3 0  9995
2 51107  53.2175 151.4130 0002276  29.7807 286.0075 15.73127015  3748
STARLINK-3362           
1 51108U 22005E   22044.50001157  .00015130  00000+0  11208-3 0  9999
2 51108  53.2165 148.5250 0002417  30.3685 352.1245 15.73188426  5319
STARLINK-3358           
1 51109U 22005F   22044.16668981  .00048124  00000+0  34686-3 0  9990
2 51109  53.2159 149.4315 0002062  23.9145 265.7606 15.73096025  5289
STARLINK-3344           
1 51110U 22005G   22044.50001157 -.00053972  00000+0 -38247-3 0  9992
2 51110  53.2165 148.5219 0002551  23.8324 359.9424 15.73203039  5326
STARLINK-3173           
1 51111U 22005H   22043.91667824  .00020812  00000+0  15274-3 0  9996
2 51111  53.2159 151.3989 0002477  15.4551 307.2446 15.73136099  3747
STARLINK-3374           
1 51112U 22005J   22044.50001157  .00023896  00000+0  17416-3 0  9999
2 51112  53.2174 148.5208 0002414  16.2166   8.1423 15.73203268  5320
STARLINK-3372           
1 51113U 22005K   22044.50001157  .00013877  00000+0  10316-3 0  9990
2 51113  53.2168 148.5163 0002635  34.6181 351.7183 15.73193134  5320
STARLINK-3375           
1 51114U 22005L   22044.16668981  .00102822  00000+0  73080-3 0  9993
2 51114  53.2162 150.1713 0002435  29.5125 264.8853 15.73111454  5271
STARLINK-3397           
1 51115U 22005M   22043.91667824  .00020904  00000+0  15344-3 0  9990
2 51115  53.2160 151.3996 0002672  30.8419 291.2538 15.73129202  3744
STARLINK-3243           
1 51116U 22005N   22043.91667824  .00064131  00000+0  46020-3 0  9996
2 51116  53.2162 151.4059 0002417  25.7106 293.8542 15.73079308  3745
STARLINK-3391           
1 51117U 22005P   22043.91667824  .00022318  00000+0  16344-3 0  9994
2 51117  53.2181 151.3949 0002629  26.4044 298.2192 15.73136969  3745
STARLINK-3394           
1 51118U 22005Q   22044.50001157 -.00039147  00000+0 -27563-3 0  9997
2 51118  53.2177 148.5174 0002574  21.4729   5.4879 15.73209156  5328
STARLINK-3390           
1 51119U 22005R   22043.91667824  .00018597  00000+0  13698-3 0  9999
2 51119  53.2171 151.3920 0002201  20.0243 305.1864 15.73138924  3749
STARLINK-3398           
1 51120U 22005S   22043.91667824  .00020855  00000+0  15308-3 0  9991
2 51120  53.2161 151.3910 0002233  18.9373 307.5481 15.73131456  3748
STARLINK-3399           
1 51121U 22005T   22044.16668981  .00101297  00000+0  71938-3 0  9996
2 51121  53.2177 150.1514 0002563  27.7822 272.9321 15.73136422  5272
STARLINK-3373           
1 51122U 22005U   22044.50001157  .00015004  00000+0  11115-3 0  9992
2 51122  53.2169 148.5070 0002581  35.6446 355.7280 15.73195282  5321
STARLINK-3392           
1 51123U 22005V   22044.50001157  .00012343  00000+0  92393-4 0  9994
2 51123  53.2168 148.5032 0002242  13.4930  19.0234 15.73159223  5295
STARLINK-3389           
1 51124U 22005W   22044.50001157 -.00098309  00000+0 -70236-3 0  9994
2 51124  53.2166 148.5024 0002367  15.2250  18.1485 15.73258140  5328
STARLINK-3387           
1 51125U 22005X   22044.50001157  .00013376  00000+0  99822-4 0  9997
2 51125  53.2171 148.4980 0002379  29.6248   5.3850 15.73140537  5328
STARLINK-3386           
1 51126U 22005Y   22044.50001157 -.00024500  00000+0 -17065-3 0  9999
2 51126  53.2170 148.5012 0002415  27.1359   6.7170 15.73195265  5320
STARLINK-3370           
1 51127U 22005Z   22044.16668981  .00000566  00000+0  84559-5 0  9994
2 51127  53.2172 150.1296 0002250  14.3947 291.1317 15.73205009  5279
STARLINK-3400           
1 51128U 22005AA  22044.50001157  .00014900  00000+0  11041-3 0  9990
2 51128  53.2171 148.4905 0002586  28.1175  10.8248 15.73195330  5324
STARLINK-3396           
1 51129U 22005AB  22043.54269744 -.00291304  00000+0 -17327-2 0  9991
2 51129  53.2211 151.7729 0001904  27.0980 333.0141 15.78038094  4077
STARLINK-3395           
1 51130U 22005AC  22044.50001157  .00015081  00000+0  11168-3 0  9994
2 51130  53.2178 148.4966 0002344  20.8110  15.0129 15.73198929  5323
STARLINK-3388           
1 51131U 22005AD  22044.50001157  .00013710  00000+0  10204-3 0  9992
2 51131  53.2179 148.4905 0002314  28.7762   9.0427 15.73177693  5324
STARLINK-3393           
1 51132U 22005AE  22044.50001157 -.00042437  00000+0 -29929-3 0  9997
2 51132  53.2177 148.4957 0002487  24.8311  12.1876 15.73209488  5329
STARLINK-3356           
1 51133U 22005AF  22044.50001157  .00015152  00000+0  11224-3 0  9999
2 51133  53.2178 148.4861 0002628  28.4441  11.1149 15.73186701  5320
STARLINK-3183           
1 51134U 22005AG  22043.91667824  .00090343  00000+0  64586-3 0  9997
2 51134  53.2119 150.6611 0002395  19.2312 295.0058 15.73029027  3743
STARLINK-3363           
1 51135U 22005AH  22044.50001157  .00016098  00000+0  11898-3 0  9998
2 51135  53.2175 148.4852 0002665  34.8291   5.3284 15.73182229  5320
STARLINK-3253           
1 51136U 22005AJ  22043.57372980 -.00281505  00000+0 -12166-2 0  9997
2 51136  53.2206 151.2415 0001593  42.5671 317.5477 15.84870528  5207
STARLINK-3180           
1 51137U 22005AK  22043.91667824  .00068420  00000+0  49039-3 0  9997
2 51137  53.2177 151.3673 0002518  26.6439 310.5472 15.73081099  3723
STARLINK-3177           
1 51138U 22005AL  22044.50001157  .00021619  00000+0  15803-3 0  9996
2 51138  53.2183 148.4851 0002660  31.1094   9.6641 15.73203022  5326
STARLINK-3172           
1 51139U 22005AM  22044.16668981  .00099537  00000+0  70818-3 0  9994
2 51139  53.2181 150.1273 0002214  22.5300 292.6142 15.73101549  5277
STARLINK-3175           
1 51140U 22005AN  22044.50001157 -.00095160  00000+0 -67946-3 0  9998
2 51140  53.2181 148.4821 0002486  18.4818  23.5976 15.73257936  5321
STARLINK-3179           
1 51141U 22005AP  22044.50001157  .00021011  00000+0  15379-3 0  9994
2 51141  53.2181 148.4751 0002568  25.8687  19.3320 15.73192668  5327
STARLINK-3369           
1 51142U 22005AQ  22044.50001157 -.00016165  00000+0 -11115-3 0  9995
2 51142  53.2173 148.4841 0002436  24.2420  17.4160 15.73158824  5351
STARLINK-3184           
1 51143U 22005AR  22044.16668981  .00119784  00000+0  84995-3 0  9997
2 51143  53.2176 150.1189 0002264  21.8295 296.4631 15.73083240  5274
STARLINK-3185           
1 51144U 22005AS  22044.50001157 -.00008522  00000+0 -56354-4 0  9990
2 51144  53.2174 148.4782 0002532  19.4680  25.1174 15.73192889  5326
STARLINK-3365           
1 51145U 22005AT  22044.50001157 -.00053503  00000+0 -37849-3 0  9997
2 51145  53.2179 148.4687 0002481  17.5472  30.2655 15.73240235  5327
STARLINK-3354           
1 51146U 22005AU  22044.50001157 -.00044606  00000+0 -31504-3 0  9994
2 51146  53.2171 148.4805 0002464  20.5363  22.7509 15.73198553  5325
STARLINK-3352           
1 51147U 22005AV  22044.50001157  .00013947  00000+0  10366-3 0  9990
2 51147  53.2178 148.4715 0002363  27.9130  18.5670 15.73192823  5320
STARLINK-3359           
1 51148U 22005AW  22044.50001157 -.00009587  00000+0 -63905-4 0  9996
2 51148  53.2171 148.4704 0002240  22.1707  26.2484 15.73215995  5328
STARLINK-3360           
1 51149U 22005AX  22044.16668981 -.00001820  00000+0 -85354-5 0  9998
2 51149  53.2173 150.0991 0002412  29.1418 290.8802 15.73206127  5279
STARLINK-3357           
1 51150U 22005AY  22043.91667824  .00020795  00000+0  15268-3 0  9992
2 51150  53.2168 151.3622 0002480  24.0125 316.3290 15.73126978  3744
STARLINK-3361           
1 51151U 22005AZ  22044.50001157  .00014840  00000+0  11002-3 0  9996
2 51151  53.2174 148.4636 0002425  20.1740  30.0888 15.73187542  5326
STARLINK-3364           
1 51152U 22005BA  22044.50001157  .00014860  00000+0  11023-3 0  9992
2 51152  53.2173 148.4674 0002442  22.0361  27.6681 15.73173978  5328
L-SAR 01A               
1 51284U 22007A   22044.57602172  .00001481  00000+0  16561-3 0  9998
2 51284  97.8087  53.7128 0001750  92.1697 267.9713 14.88420250  2768
CZ-4C R/B               
1 51285U 22007B   22043.92405523  .00005460  00000+0  23921-3 0  9997
2 51285  97.8455  53.9235 0123300 330.2857  29.1408 15.15800191  2710
CZ-4C DEB               
1 51286U 22007C   22040.96708496  .00523041  00000+0  79913-1 0  9994
2 51286  97.7881  49.4853 0112876 160.7850 199.7665 14.67057094  2197
ASCENT                  
1 51287U 21118E   22037.20605106 -.00000057  00000+0  00000+0 0  9991
2 51287   0.1323 113.8875 0002651 136.3445 187.7236  1.01234817   200
ELSA-D CLIENT           
1 51288U 21022AQ  22043.92136078  .00003979  00000+0  26837-3 0  9994
2 51288  97.5407 306.3959 0017885 199.1079 160.9480 15.07085580  2805
GASPACS                 
1 51439U 98067TB  22044.23033565  .00088463  00000+0  14098-2 0  9993
2 51439  51.6393 230.2661 0006647 135.7781 224.3741 15.52471978  2785
1998-067TC              
1 51440U 98067TC  22043.90441406  .00108968  00000+0  16854-2 0  9990
2 51440  51.6397 231.8393 0006261 137.6876 222.4598 15.53204460  2799
1998-067TD              
1 51441U 98067TD  22043.91412574  .00031723  00000+0  53865-3 0  9994
2 51441  51.6400 231.9032 0007990 139.9166 220.2415 15.51151029  2786
